{"type": "FeatureCollection", "features": [ {"type": "Feature", "properties": {"norad_id": 39620, "name": "COSMOS 2492 (754)", "group": "gnss", "lat": -8.080415545465105, "lon": -43.287572723152785, "alt_km": 19103.762858562397, "timestamp": "2025-12-07T09:35:10.033945+00:00", "meta": {"OBJECT_NAME": "COSMOS 2492 (754)", "OBJECT_ID": "2014-012A", "EPOCH": "2025-12-02T17:14:30.403680", "MEAN_MOTION": 2.13103072, "ECCENTRICITY": 0.00141646, "INCLINATION": 65.4134, "RA_OF_ASC_NODE": 320.6107, "ARG_OF_PERICENTER": 311.0276, "MEAN_ANOMALY": 48.8557, "EPHEMERIS_TYPE": 0, "CLASSIFICATION_TYPE": "U", "NORAD_CAT_ID": 39620, "ELEMENT_SET_NO": 999, "REV_AT_EPOCH": 9105, "BSTAR": 0, "MEAN_MOTION_DOT": -3.6e-07, "MEAN_MOTION_DDOT": 0}, "tle": {"line1": "1 39620U 14012A   25336.71840745 -.00000036  00000+0  00000+0 0  9991", "line2": "2 39620  65.4134 320.6107 0014164 311.0276  48.8557  2.13103072 91051"}}, "geometry": {"type": "Point", "coordinates": [-43.287572723152785, -8.080415545465105]}}, {"type": "Feature", "properties": {"norad_id": 39635, "name": "IRNSS-1B", "group": "gnss", "lat": 14.574340650374472, "lon": -88.117500348936, "alt_km": 35848.969532555246, "timestamp": "2025-12-07T09:35:10.033957+00:00", "meta": {"OBJECT_NAME": "IRNSS-1B", "OBJECT_ID": "2014-017A", "EPOCH": "2025-12-06T19:04:03.146304", "MEAN_MOTION": 1.00276623, "ECCENTRICITY": 0.001765, "INCLINATION": 28.835, "RA_OF_ASC_NODE": 243.6935, "ARG_OF_PERICENTER": 183.3947, "MEAN_ANOMALY": 349.8402, "EPHEMERIS_TYPE": 0, "CLASSIFICATION_TYPE": "U", "NORAD_CAT_ID": 39635, "ELEMENT_SET_NO": 999, "REV_AT_EPOCH": 4286, "BSTAR": 0, "MEAN_MOTION_DOT": 1.22e-06, "MEAN_MOTION_DDOT": 0}, "tle": {"line1": "1 39635U 14017A   25340.79448086  .00000122  00000+0  00000+0 0  9992", "line2": "2 39635  28.8350 243.6935 0017650 183.3947 349.8402  1.00276623 42867"}}, "geometry": {"type": "Point", "coordinates": [-88.117500348936, 14.574340650374472]}}, {"type": "Feature", "properties": {"norad_id": 39727, "name": "LUCH 5V (SDCM/PRN 141)", "group": "gnss", "lat": -4.176641419148049, "lon": -45.049330672343785, "alt_km": 35772.32188568033, "timestamp": "2025-12-07T09:35:10.033969+00:00", "meta": {"OBJECT_NAME": "LUCH 5V (SDCM/PRN 141)", "OBJECT_ID": "2014-023A", "EPOCH": "2025-12-06T19:15:09.582336", "MEAN_MOTION": 1.00270751, "ECCENTRICITY": 0.00046101, "INCLINATION": 4.654, "RA_OF_ASC_NODE": 71.5894, "ARG_OF_PERICENTER": 202.2418, "MEAN_ANOMALY": 185.5726, "EPHEMERIS_TYPE": 0, "CLASSIFICATION_TYPE": "U", "NORAD_CAT_ID": 39727, "ELEMENT_SET_NO": 999, "REV_AT_EPOCH": 4243, "BSTAR": 0, "MEAN_MOTION_DOT": -2.65e-06, "MEAN_MOTION_DDOT": 0}, "tle": {"line1": "1 39727U 14023A   25340.80219424 -.00000265  00000+0  00000+0 0  9994", "line2": "2 39727   4.6540  71.5894 0004610 202.2418 185.5726  1.00270751 42433"}}, "geometry": {"type": "Point", "coordinates": [-45.049330672343785, -4.176641419148049]}}, {"type": "Feature", "properties": {"norad_id": 39741, "name": "GPS BIIF-6  (PRN 06)", "group": "gnss", "lat": -54.98382534196504, "lon": -91.45663974998492, "alt_km": 20105.522787064612, "timestamp": "2025-12-07T09:35:10.033983+00:00", "meta": {"OBJECT_NAME": "GPS BIIF-6  (PRN 06)", "OBJECT_ID": "2014-026A", "EPOCH": "2025-12-06T12:15:32.711328", "MEAN_MOTION": 2.00561644, "ECCENTRICITY": 0.00390117, "INCLINATION": 56.5859, "RA_OF_ASC_NODE": 339.0187, "ARG_OF_PERICENTER": 318.329, "MEAN_ANOMALY": 41.3876, "EPHEMERIS_TYPE": 0, "CLASSIFICATION_TYPE": "U", "NORAD_CAT_ID": 39741, "ELEMENT_SET_NO": 999, "REV_AT_EPOCH": 8467, "BSTAR": 0, "MEAN_MOTION_DOT": -7.9e-07, "MEAN_MOTION_DDOT": 0}, "tle": {"line1": "1 39741U 14026A   25340.51079527 -.00000079  00000+0  00000+0 0  9992", "line2": "2 39741  56.5859 339.0187 0039011 318.3290  41.3876  2.00561644 84677"}}, "geometry": {"type": "Point", "coordinates": [-91.45663974998492, -54.98382534196504]}}, {"type": "Feature", "properties": {"norad_id": 40001, "name": "COSMOS 2500 (755)", "group": "gnss", "lat": -34.84466051344571, "lon": 158.84521836695004, "alt_km": 19113.28249255629, "timestamp": "2025-12-07T09:35:10.033994+00:00", "meta": {"OBJECT_NAME": "COSMOS 2500 (755)", "OBJECT_ID": "2014-032A", "EPOCH": "2025-12-06T15:28:27.002208", "MEAN_MOTION": 2.13105861, "ECCENTRICITY": 0.00081882, "INCLINATION": 65.3469, "RA_OF_ASC_NODE": 320.24, "ARG_OF_PERICENTER": 219.2231, "MEAN_ANOMALY": 140.7117, "EPHEMERIS_TYPE": 0, "CLASSIFICATION_TYPE": "U", "NORAD_CAT_ID": 40001, "ELEMENT_SET_NO": 999, "REV_AT_EPOCH": 8935, "BSTAR": 0, "MEAN_MOTION_DOT": -4.9e-07, "MEAN_MOTION_DDOT": 0}, "tle": {"line1": "1 40001U 14032A   25340.64475697 -.00000049  00000+0  00000+0 0  9999", "line2": "2 40001  65.3469 320.2400 0008188 219.2231 140.7117  2.13105861 89359"}}, "geometry": {"type": "Point", "coordinates": [158.84521836695004, -34.84466051344571]}}, {"type": "Feature", "properties": {"norad_id": 40105, "name": "GPS BIIF-7  (PRN 09)", "group": "gnss", "lat": -31.07687528306278, "lon": -59.17046976107028, "alt_km": 20199.002172213477, "timestamp": "2025-12-07T09:35:10.034006+00:00", "meta": {"OBJECT_NAME": "GPS BIIF-7  (PRN 09)", "OBJECT_ID": "2014-045A", "EPOCH": "2025-12-05T14:26:16.975968", "MEAN_MOTION": 2.00571979, "ECCENTRICITY": 0.00328896, "INCLINATION": 55.2248, "RA_OF_ASC_NODE": 96.1837, "ARG_OF_PERICENTER": 119.6741, "MEAN_ANOMALY": 240.6258, "EPHEMERIS_TYPE": 0, "CLASSIFICATION_TYPE": "U", "NORAD_CAT_ID": 40105, "ELEMENT_SET_NO": 999, "REV_AT_EPOCH": 8219, "BSTAR": 0, "MEAN_MOTION_DOT": -1.2e-07, "MEAN_MOTION_DDOT": 0}, "tle": {"line1": "1 40105U 14045A   25339.60158537 -.00000012  00000+0  00000+0 0  9993", "line2": "2 40105  55.2248  96.1837 0032889 119.6741 240.6258  2.00571979 82198"}}, "geometry": {"type": "Point", "coordinates": [-59.17046976107028, -31.07687528306278]}}, {"type": "Feature", "properties": {"norad_id": 40128, "name": "GSAT0201 (GALILEO 5)", "group": "gnss", "lat": -45.83653899787668, "lon": -141.83051119843105, "alt_km": 22996.018544907092, "timestamp": "2025-12-07T09:35:10.034017+00:00", "meta": {"OBJECT_NAME": "GSAT0201 (GALILEO 5)", "OBJECT_ID": "2014-050A", "EPOCH": "2025-12-05T22:06:07.108704", "MEAN_MOTION": 1.85519466, "ECCENTRICITY": 0.16472656, "INCLINATION": 49.0848, "RA_OF_ASC_NODE": 281.3416, "ARG_OF_PERICENTER": 172.0236, "MEAN_ANOMALY": 190.9997, "EPHEMERIS_TYPE": 0, "CLASSIFICATION_TYPE": "U", "NORAD_CAT_ID": 40128, "ELEMENT_SET_NO": 999, "REV_AT_EPOCH": 7473, "BSTAR": 0, "MEAN_MOTION_DOT": -5.5e-07, "MEAN_MOTION_DDOT": 0}, "tle": {"line1": "1 40128U 14050A   25339.92091561 -.00000055  00000+0  00000+0 0  9999", "line2": "2 40128  49.0848 281.3416 1647265 172.0236 190.9997  1.85519466 74737"}}, "geometry": {"type": "Point", "coordinates": [-141.83051119843105, -45.83653899787668]}}, {"type": "Feature", "properties": {"norad_id": 40129, "name": "GSAT0202 (GALILEO 6)", "group": "gnss", "lat": 48.162659474259655, "lon": -4.454160698378984, "alt_km": 21033.655568167305, "timestamp": "2025-12-07T09:35:10.034029+00:00", "meta": {"OBJECT_NAME": "GSAT0202 (GALILEO 6)", "OBJECT_ID": "2014-050B", "EPOCH": "2025-12-06T04:15:08.981856", "MEAN_MOTION": 1.85520222, "ECCENTRICITY": 0.16479377, "INCLINATION": 49.1003, "RA_OF_ASC_NODE": 280.4147, "ARG_OF_PERICENTER": 172.7832, "MEAN_ANOMALY": 189.9608, "EPHEMERIS_TYPE": 0, "CLASSIFICATION_TYPE": "U", "NORAD_CAT_ID": 40129, "ELEMENT_SET_NO": 999, "REV_AT_EPOCH": 7690, "BSTAR": 0, "MEAN_MOTION_DOT": -5.4e-07, "MEAN_MOTION_DDOT": 0}, "tle": {"line1": "1 40129U 14050B   25340.17718729 -.00000054  00000+0  00000+0 0  9990", "line2": "2 40129  49.1003 280.4147 1647937 172.7832 189.9608  1.85520222 76908"}}, "geometry": {"type": "Point", "coordinates": [-4.454160698378984, 48.162659474259655]}}, {"type": "Feature", "properties": {"norad_id": 40269, "name": "IRNSS-1C", "group": "gnss", "lat": -3.058806678682786, "lon": -57.08223882630153, "alt_km": 35854.02257528919, "timestamp": "2025-12-07T09:35:10.034043+00:00", "meta": {"OBJECT_NAME": "IRNSS-1C", "OBJECT_ID": "2014-061A", "EPOCH": "2025-12-06T20:54:30.066048", "MEAN_MOTION": 1.0026867, "ECCENTRICITY": 0.00178144, "INCLINATION": 6.026, "RA_OF_ASC_NODE": 92.7398, "ARG_OF_PERICENTER": 2.5775, "MEAN_ANOMALY": 17.1506, "EPHEMERIS_TYPE": 0, "CLASSIFICATION_TYPE": "U", "NORAD_CAT_ID": 40269, "ELEMENT_SET_NO": 999, "REV_AT_EPOCH": 4076, "BSTAR": 0, "MEAN_MOTION_DOT": -1.57e-06, "MEAN_MOTION_DDOT": 0}, "tle": {"line1": "1 40269U 14061A   25340.87118132 -.00000157  00000+0  00000+0 0  9990", "line2": "2 40269   6.0260  92.7398 0017814   2.5775  17.1506  1.00268670 40769"}}, "geometry": {"type": "Point", "coordinates": [-57.08223882630153, -3.058806678682786]}}, {"type": "Feature", "properties": {"norad_id": 40294, "name": "GPS BIIF-8  (PRN 03)", "group": "gnss", "lat": -42.227295294302095, "lon": 2.0340196284355416, "alt_km": 20273.71319070311, "timestamp": "2025-12-07T09:35:10.034057+00:00", "meta": {"OBJECT_NAME": "GPS BIIF-8  (PRN 03)", "OBJECT_ID": "2014-068A", "EPOCH": "2025-12-05T23:27:53.798400", "MEAN_MOTION": 2.00564264, "ECCENTRICITY": 0.00608121, "INCLINATION": 56.8528, "RA_OF_ASC_NODE": 38.4077, "ARG_OF_PERICENTER": 69.3337, "MEAN_ANOMALY": 291.3749, "EPHEMERIS_TYPE": 0, "CLASSIFICATION_TYPE": "U", "NORAD_CAT_ID": 40294, "ELEMENT_SET_NO": 999, "REV_AT_EPOCH": 8133, "BSTAR": 0, "MEAN_MOTION_DOT": -6.8e-07, "MEAN_MOTION_DDOT": 0}, "tle": {"line1": "1 40294U 14068A   25339.97770600 -.00000068  00000+0  00000+0 0  9999", "line2": "2 40294  56.8528  38.4077 0060812  69.3337 291.3749  2.00564264 81331"}}, "geometry": {"type": "Point", "coordinates": [2.0340196284355416, -42.227295294302095]}}]}